GLOBALSTAR M084 [+]     
1 38040U 11080A   24107.73389593 -.00000073  00000+0  17109-3 0  9997
2 38040  52.0001 266.7513 0000839 128.6288 244.4138 12.62273413568815
GLOBALSTAR M080 [+]     
1 38041U 11080B   24107.70786449 -.00000077  00000+0  14776-3 0  9997
2 38041  52.0053 268.2894 0001060 127.6240 245.9182 12.62271308568935
GLOBALSTAR M082 [+]     
1 38042U 11080C   24107.64171588 -.00000086  00000+0  10124-3 0  9996
2 38042  52.0068 223.8918 0000386  48.2958 324.3339 12.62268102569632
GLOBALSTAR M092 [+]     
1 38043U 11080D   24107.96154806 -.00000053  00000+0  28277-3 0  9998
2 38043  52.0086 313.2727 0000612 107.5644  39.9285 12.62278266568122
GLOBALSTAR M090 [+]     
1 38044U 11080E   24108.22025691 -.00000093  00000+0  60996-4 0  9997
2 38044  51.9877 216.4865 0000443  91.8422 272.2664 12.62268158569861
GLOBALSTAR M086 [+]     
1 38045U 11080F   24107.61535461 -.00000085  00000+0  10544-3 0  9995
2 38045  51.9888 218.8470 0001505 103.7378 269.7900 12.62269566569694
GLOBALSTAR M097 [+]     
1 39072U 13005A   24107.32228933 -.00000105  00000+0 -71268-5 0  9992
2 39072  52.0024 133.8542 0000489  69.2455 290.8464 12.62262353516900
GLOBALSTAR M093 [+]     
1 39073U 13005B   24107.45404327 -.00000096  00000+0  45313-4 0  9999
2 39073  51.9788 127.4378 0000554  58.1997 301.8923 12.62263125516870
